COMMENT,ORIGINATOR,NORAD_CAT_ID,OBJECT_NAME,OBJECT_TYPE,CLASSIFICATION_TYPE,INTLDES,EPOCH,EPOCH_MICROSECONDS,MEAN_MOTION,ECCENTRICITY,INCLINATION,RA_OF_ASC_NODE,ARG_OF_PERICENTER,MEAN_ANOMALY,EPHEMERIS_TYPE,ELEMENT_SET_NO,REV_AT_EPOCH,BSTAR,MEAN_MOTION_DOT,MEAN_MOTION_DDOT,FILE,TLE_LINE0,TLE_LINE1,TLE_LINE2,OBJECT_ID,OBJECT_NUMBER,SEMIMAJOR_AXIS,PERIOD,APOGEE,PERIGEE,DECAYED,date
GENERATED VIA SPACETRACK.ORG API,18 SPCS,48897,SPACEBEE-109,PAYLOAD,U,21059U,2023/1/26 8:34,435456,15.22246376,0.000879,97.5789,161.3034,46.6757,313.521,0,999,8776,0.0011501,0.00026478,0,3761951,0 SPACEBEE-109,1 48897U 21059U   23026.35719254  .00026478  00000-0  11501-2 0  9999,2 48897  97.5789 161.3034 0008790  46.6757 313.5210 15.22246376 87761,2021-059U,48897,6877.203,94.597,505.114,493.023,0,2023/2/16
GENERATED VIA SPACETRACK.ORG API,18 SPCS,48897,SPACEBEE-109,PAYLOAD,U,21059U,2023/1/27 14:32,509664,15.22307886,0.0008663,97.5784,162.5622,41.8459,318.3438,0,999,8795,0.0010444,0.00024073,0,3762956,0 SPACEBEE-109,1 48897U 21059U   23027.60611701  .00024073  00000-0  10444-2 0  9990,2 48897  97.5784 162.5622 0008663  41.8459 318.3438 15.22307886 87957,2021-059U,48897,6877.018,94.593,504.841,492.926,0,2023/2/17
GENERATED VIA SPACETRACK.ORG API,18 SPCS,48897,SPACEBEE-109,PAYLOAD,U,21059U,2023/1/27 19:16,92000,15.22317782,0.0008643,97.5787,162.7611,41.0359,319.1526,0,999,8798,0.0010463,0.00024124,0,3763066,0 SPACEBEE-109,1 48897U 21059U   23027.80331125  .00024124  00000-0  10463-2 0  9999,2 48897  97.5787 162.7611 0008643  41.0359 319.1526 15.22317782 87985,2021-059U,48897,6876.988,94.593,504.797,492.91,0,2023/2/18
GENERATED VIA SPACETRACK.ORG API,18 SPCS,48897,SPACEBEE-109,PAYLOAD,U,21059U,2023/1/27 20:51,275456,15.22319962,0.0008634,97.5788,162.8277,41.0058,319.1826,0,999,8799,0.0010137,0.00023369,0,3763218,0 SPACEBEE-109,1 48897U 21059U   23027.86904254  .00023369  00000-0  10137-2 0  9992,2 48897  97.5788 162.8277 0008634  41.0058 319.1826 15.22319962 87997,2021-059U,48897,6876.982,94.592,504.784,492.909,0,2023/2/19
GENERATED VIA SPACETRACK.ORG API,18 SPCS,48897,SPACEBEE-109,PAYLOAD,U,21059U,2023/1/28 12:37,375616,15.22350171,0.0008751,97.5785,163.4903,37.9076,322.2774,0,999,8809,0.0010182,0.00023495,0,3763924,0 SPACEBEE-109,1 48897U 21059U   23028.52634694  .00023495  00000-0  10182-2 0  9994,2 48897  97.5785 163.4903 0008751  37.9076 322.2774 15.22350171 88097,2021-059U,48897,6876.891,94.591,504.774,492.738,0,2023/2/20
GENERATED VIA SPACETRACK.ORG API,18 SPCS,48897,SPACEBEE-109,PAYLOAD,U,21059U,2023/1/28 20:31,585280,15.22360794,0.000874,97.5786,163.8216,37.1346,323.0493,0,999,8814,0.00082489,0.00019015,0,3764201,0 SPACEBEE-109,1 48897U 21059U   23028.85499520  .00019015  00000-0  82489-3 0  9990,2 48897  97.5786 163.8216 0008740  37.1346 323.0493 15.22360794 88144,2021-059U,48897,6876.859,94.59,504.734,492.714,0,2023/2/21
GENERATED VIA SPACETRACK.ORG API,18 SPCS,48897,SPACEBEE-109,PAYLOAD,U,21059U,2023/1/29 2:49,515584,15.22372151,0.0008736,97.5786,164.0869,36.4732,323.7098,0,999,8818,0.0008894,0.00020519,0,3764322,0 SPACEBEE-109,1 48897U 21059U   23029.11791106  .00020519  00000-0  88940-3 0  9994,2 48897  97.5786 164.0869 0008736  36.4732 323.7098 15.22372151 88189,2021-059U,48897,6876.825,94.589,504.697,492.682,0,2023/2/22
GENERATED VIA SPACETRACK.ORG API,18 SPCS,48897,SPACEBEE-109,PAYLOAD,U,21059U,2023/1/29 20:10,537248,15.22400925,0.00087,97.5785,164.8157,34.5889,325.5912,0,999,8829,0.00075125,0.00017327,0,3765015,0 SPACEBEE-109,1 48897U 21059U   23029.84092057  .00017327  00000-0  75125-3 0  9997,2 48897  97.5785 164.8157 0008700  34.5889 325.5912 15.22400925 88297,2021-059U,48897,6876.738,94.587,504.586,492.62,0,2023/2/23
GENERATED VIA SPACETRACK.ORG API,18 SPCS,48897,SPACEBEE-109,PAYLOAD,U,21059U,2023/1/30 8:48,123456,15.22420446,0.0008713,97.5784,165.3461,32.8812,327.2964,0,999,8837,0.00075654,0.0001746,0,3765470,0 SPACEBEE-109,1 48897U 21059U   23030.36673754  .00017460  00000-0  75654-3 0  9990,2 48897  97.5784 165.3461 0008713  32.8812 327.2964 15.22420446 88376,2021-059U,48897,6876.679,94.586,504.536,492.553,0,2023/2/24
GENERATED VIA SPACETRACK.ORG API,18 SPCS,48897,SPACEBEE-109,PAYLOAD,U,21059U,2023/1/30 8:48,123456,15.22420446,0.0008713,97.5784,165.3461,32.8812,327.2964,0,999,8837,0.00075654,0.0001746,0,3765576,0 SPACEBEE-109,1 48897U 21059U   23030.36673754  .00017460  00000-0  75654-3 0  9990,2 48897  97.5784 165.3461 0008713  32.8812 327.2964 15.22420446 88376,2021-059U,48897,6876.679,94.586,504.536,492.553,0,2023/2/25
GENERATED VIA SPACETRACK.ORG API,18 SPCS,48897,SPACEBEE-109,PAYLOAD,U,21059U,2023/1/31 8:27,938240,15.22456597,0.0008635,97.5784,166.34,29.4114,330.7606,0,999,8852,0.0007792,0.00018005,0,3766475,0 SPACEBEE-109,1 48897U 21059U   23031.35262660  .00018005  00000-0  77920-3 0  9994,2 48897  97.5784 166.3400 0008635  29.4114 330.7606 15.22456597 88525,2021-059U,48897,6876.57,94.584,504.373,492.497,0,2023/2/26
GENERATED VIA SPACETRACK.ORG API,18 SPCS,48897,SPACEBEE-109,PAYLOAD,U,21059U,2023/2/1 8:07,618944,15.22496198,0.0008566,97.5783,167.3341,26.0599,334.1067,0,999,8867,0.00084166,0.00019481,0,3767367,0 SPACEBEE-109,1 48897U 21059U   23032.33849096  .00019481  00000-0  84166-3 0  9996,2 48897  97.5783 167.3341 0008566  26.0599 334.1067 15.22496198 88678,2021-059U,48897,6876.451,94.582,504.207,492.426,0,2023/2/27
GENERATED VIA SPACETRACK.ORG API,18 SPCS,48897,SPACEBEE-109,PAYLOAD,U,21059U,2023/2/1 8:07,618944,15.22496198,0.0008566,97.5783,167.3341,26.0599,334.1067,0,999,8867,0.00084166,0.00019481,0,3767525,0 SPACEBEE-109,1 48897U 21059U   23032.33849096  .00019481  00000-0  84166-3 0  9996,2 48897  97.5783 167.3341 0008566  26.0599 334.1067 15.22496198 88678,2021-059U,48897,6876.451,94.582,504.207,492.426,0,2023/2/28
GENERATED VIA SPACETRACK.ORG API,18 SPCS,48897,SPACEBEE-109,PAYLOAD,U,21059U,2023/2/2 7:47,996224,15.22541752,0.0008508,97.5785,168.3284,22.5425,337.6183,0,999,8882,0.0010203,0.00023676,0,3768366,0 SPACEBEE-109,1 48897U 21059U   23033.32432866  .00023676  00000-0  10203-2 0  9990,2 48897  97.5785 168.3284 0008508  22.5425 337.6183 15.22541752 88823,2021-059U,48897,6876.314,94.579,504.029,492.329,0,2023/3/1
GENERATED VIA SPACETRACK.ORG API,18 SPCS,48897,SPACEBEE-109,PAYLOAD,U,21059U,2023/2/2 7:47,996224,15.22541752,0.0008508,97.5785,168.3284,22.5425,337.6183,0,999,8882,0.0010203,0.00023676,0,3768690,0 SPACEBEE-109,1 48897U 21059U   23033.32432866  .00023676  00000-0  10203-2 0  9990,2 48897  97.5785 168.3284 0008508  22.5425 337.6183 15.22541752 88823,2021-059U,48897,6876.314,94.579,504.029,492.329,0,2023/3/2
GENERATED VIA SPACETRACK.ORG API,18 SPCS,48897,SPACEBEE-109,PAYLOAD,U,21059U,2023/2/3 7:26,1824,15.22581284,0.0008484,97.5789,169.3227,19.0462,341.109,0,999,8897,0.0008982,0.0002085,0,3770323,0 SPACEBEE-109,1 48897U 21059U   23034.31013891  .00020850  00000-0  89820-3 0  9996,2 48897  97.5789 169.3227 0008484  19.0462 341.1090 15.22581284 88977,2021-059U,48897,6876.195,94.576,503.894,492.226,0,2023/3/3
GENERATED VIA SPACETRACK.ORG API,18 SPCS,48897,SPACEBEE-109,PAYLOAD,U,21059U,2023/2/3 7:26,1824,15.22581284,0.0008484,97.5789,169.3227,19.0462,341.109,0,999,8897,0.0008982,0.0002085,0,3770478,0 SPACEBEE-109,1 48897U 21059U   23034.31013891  .00020850  00000-0  89820-3 0  9996,2 48897  97.5789 169.3227 0008484  19.0462 341.1090 15.22581284 88977,2021-059U,48897,6876.195,94.576,503.894,492.226,0,2023/3/4
GENERATED VIA SPACETRACK.ORG API,18 SPCS,48897,SPACEBEE-109,PAYLOAD,U,21059U,2023/2/4 8:40,588000,15.22629555,0.0008502,97.5793,170.3835,15.5189,344.6306,0,999,8913,0.00099005,0.00023029,0,3771673,0 SPACEBEE-109,1 48897U 21059U   23035.36163875  .00023029  00000-0  99005-3 0  9997,2 48897  97.5793 170.3835 0008502  15.5189 344.6306 15.22629555 89138,2021-059U,48897,6876.05,94.573,503.761,492.069,0,2023/3/5
GENERATED VIA SPACETRACK.ORG API,18 SPCS,48897,SPACEBEE-109,PAYLOAD,U,21059U,2023/2/4 8:40,588000,15.22629555,0.0008502,97.5793,170.3835,15.5189,344.6306,0,999,8913,0.00099005,0.00023029,0,3771952,0 SPACEBEE-109,1 48897U 21059U   23035.36163875  .00023029  00000-0  99005-3 0  9997,2 48897  97.5793 170.3835 0008502  15.5189 344.6306 15.22629555 89138,2021-059U,48897,6876.05,94.573,503.761,492.069,0,2023/3/6
GENERATED VIA SPACETRACK.ORG API,18 SPCS,48897,SPACEBEE-109,PAYLOAD,U,21059U,2023/2/4 21:17,268256,15.2265221,0.000843,97.5794,170.9136,13.7302,346.4162,0,999,8921,0.00081806,0.00019018,0,3772514,0 SPACEBEE-109,1 48897U 21059U   23035.88737579  .00019018  00000-0  81806-3 0  9995,2 48897  97.5794 170.9136 0008430  13.7302 346.4162 15.22652210 89219,2021-059U,48897,6875.981,94.572,503.643,492.05,0,2023/3/7
GENERATED VIA SPACETRACK.ORG API,18 SPCS,48897,SPACEBEE-109,PAYLOAD,U,21059U,2023/2/5 14:38,749472,15.22683776,0.0008407,97.5794,171.6429,10.9894,349.1524,0,999,8932,0.00089917,0.00020936,0,3773728,0 SPACEBEE-109,1 48897U 21059U   23036.61025173  .00020936  00000-0  89917-3 0  9999,2 48897  97.5794 171.6429 0008407  10.9894 349.1524 15.22683776 89326,2021-059U,48897,6875.886,94.57,503.532,491.971,0,2023/3/8
GENERATED VIA SPACETRACK.ORG API,18 SPCS,48897,SPACEBEE-109,PAYLOAD,U,21059U,2023/2/5 19:22,132768,15.2269251,0.0008407,97.5795,171.8418,10.1862,349.9543,0,999,8935,0.00089651,0.00020879,0,3773891,0 SPACEBEE-109,1 48897U 21059U   23036.80739737  .00020879  00000-0  89651-3 0  9999,2 48897  97.5795 171.8418 0008407  10.1862 349.9543 15.22692510 89352,2021-059U,48897,6875.86,94.569,503.506,491.945,0,2023/3/9
GENERATED VIA SPACETRACK.ORG API,18 SPCS,48897,SPACEBEE-109,PAYLOAD,U,21059U,2023/2/5 22:31,627744,15.22699263,0.0008407,97.5795,171.9745,9.7787,350.3611,0,999,8937,0.00092473,0.00021544,0,3774172,0 SPACEBEE-109,1 48897U 21059U   23036.93882671  .00021544  00000-0  92473-3 0  9995,2 48897  97.5795 171.9745 0008407   9.7787 350.3611 15.22699263 89372,2021-059U,48897,6875.84,94.569,503.485,491.924,0,2023/3/10
